start=new Date('%Y-%m-41T00:00:00.000Z').valueOf();
sats=[{"OBJECT_NAME":"STARLINK-1622","MEAN_MOTION":"15.06401083","ELEMENT_SET_NO":"999","PERIOD":"95.592","MEAN_MOTION_DOT":"0.00000426","EPHEMERIS_TYPE":"0","TLE_LINE2":"2 46128  53.0547 178.2355 0001571  51.2224 308.8905 15.06401083 56101","MEAN_MOTION_DDOT":"0.0000000000000","EPOCH":"2021-08-20T13:19:55.302816","REF_FRAME":"TEME","SITE":"AFETR","PERIAPSIS":"546.122","MEAN_ANOMALY":"308.8905","INCLINATION":"53.0547","NORAD_CAT_ID":"46128","LAUNCH_DATE":"2020-08-18","MEAN_ELEMENT_THEORY":"SGP4","REV_AT_EPOCH":"5610","RCS_SIZE":"LARGE","COUNTRY_CODE":"US","GP_ID":"183154908","FILE":"3100512","OBJECT_ID":"2020-057M","DECAY_DATE":null,"ARG_OF_PERICENTER":"51.2224","APOAPSIS":"548.298","SEMIMAJOR_AXIS":"6925.345","BSTAR":"0.00004750500000","TIME_SYSTEM":"UTC","TLE_LINE1":"1 46128U 20057M   21232.55550119  .00000426  00000-0  47505-4 0  9993","OBJECT_TYPE":"PAYLOAD","ECCENTRICITY":"0.00015710","CLASSIFICATION_TYPE":"U","CENTER_NAME":"EARTH","RA_OF_ASC_NODE":"178.2355"},{"APOAPSIS":"548.356","ARG_OF_PERICENTER":"62.1963","OBJECT_ID":"2020-057N","DECAY_DATE":null,"FILE":"3100512","GP_ID":"183156160","CENTER_NAME":"EARTH","RA_OF_ASC_NODE":"177.7549","CLASSIFICATION_TYPE":"U","ECCENTRICITY":"0.00016220","OBJECT_TYPE":"PAYLOAD","TLE_LINE1":"1 46129U 20057N   21232.66239742 -.00000968  00000-0 -46115-4 0  9991","TIME_SYSTEM":"UTC","BSTAR":"-0.00004611500000","SEMIMAJOR_AXIS":"6925.367","EPOCH":"2021-08-20T15:53:51.137088","EPHEMERIS_TYPE":"0","TLE_LINE2":"2 46129  53.0546 177.7549 0001622  62.1963 297.9190 15.06393836 56120","MEAN_MOTION_DDOT":"0.0000000000000","MEAN_MOTION_DOT":"-0.00000968","ELEMENT_SET_NO":"999","PERIOD":"95.593","MEAN_MOTION":"15.06393836","OBJECT_NAME":"STARLINK-1623","LAUNCH_DATE":"2020-08-18","REV_AT_EPOCH":"5612","MEAN_ELEMENT_THEORY":"SGP4","COUNTRY_CODE":"US","RCS_SIZE":"LARGE","NORAD_CAT_ID":"46129","MEAN_ANOMALY":"297.9190","INCLINATION":"53.0546","PERIAPSIS":"546.109","REF_FRAME":"TEME","SITE":"AFETR"},{"MEAN_ANOMALY":"290.6784","INCLINATION":"53.0537","SITE":"AFETR","REF_FRAME":"TEME","PERIAPSIS":"546.131","REV_AT_EPOCH":"5738","LAUNCH_DATE":"2020-08-18","MEAN_ELEMENT_THEORY":"SGP4","RCS_SIZE":"LARGE","COUNTRY_CODE":"US","NORAD_CAT_ID":"46130","MEAN_MOTION_DOT":"0.00001358","OBJECT_NAME":"STARLINK-1624","MEAN_MOTION":"15.06404869","ELEMENT_SET_NO":"999","PERIOD":"95.592","EPOCH":"2021-08-20T18:17:09.259872","EPHEMERIS_TYPE":"0","TLE_LINE2":"2 46130  53.0537 177.3097 0001541  69.4370 290.6784 15.06404869 57385","MEAN_MOTION_DDOT":"0.0000000000000","BSTAR":"0.00011004000000","TIME_SYSTEM":"UTC","TLE_LINE1":"1 46130U 20057P   21232.76191273  .00001358  00000-0  11004-3 0  9990","SEMIMAJOR_AXIS":"6925.334","CLASSIFICATION_TYPE":"U","CENTER_NAME":"EARTH","RA_OF_ASC_NODE":"177.3097","OBJECT_TYPE":"PAYLOAD","ECCENTRICITY":"0.00015410","FILE":"3100512","OBJECT_ID":"2020-057P","DECAY_DATE":null,"GP_ID":"183155910","ARG_OF_PERICENTER":"69.4370","APOAPSIS":"548.266"},{"MEAN_MOTION_DOT":"0.00000715","OBJECT_NAME":"STARLINK-1625","MEAN_MOTION":"15.06409819","PERIOD":"95.592","ELEMENT_SET_NO":"999","EPOCH":"2021-08-21T07:20:03.474528","MEAN_MOTION_DDOT":"0.0000000000000","TLE_LINE2":"2 46131  53.0544 194.8678 0001300  52.2787 307.8320 15.06409819 56597","EPHEMERIS_TYPE":"0","INCLINATION":"53.0544","MEAN_ANOMALY":"307.8320","SITE":"AFETR","REF_FRAME":"TEME","PERIAPSIS":"546.283","COUNTRY_CODE":"US","RCS_SIZE":"LARGE","LAUNCH_DATE":"2020-08-18","REV_AT_EPOCH":"5659","MEAN_ELEMENT_THEORY":"SGP4","NORAD_CAT_ID":"46131","FILE":"3100740","DECAY_DATE":null,"OBJECT_ID":"2020-057Q","GP_ID":"183162354","ARG_OF_PERICENTER":"52.2787","APOAPSIS":"548.084","BSTAR":"0.00006685900000","TIME_SYSTEM":"UTC","TLE_LINE1":"1 46131U 20057Q   21233.30559577  .00000715  00000-0  66859-4 0  9992","SEMIMAJOR_AXIS":"6925.318","CLASSIFICATION_TYPE":"U","RA_OF_ASC_NODE":"194.8678","CENTER_NAME":"EARTH","OBJECT_TYPE":"PAYLOAD","ECCENTRICITY":"0.00013000"},{"COUNTRY_CODE":"US","RCS_SIZE":"LARGE","LAUNCH_DATE":"2020-08-18","REV_AT_EPOCH":"5682","MEAN_ELEMENT_THEORY":"SGP4","NORAD_CAT_ID":"46132","INCLINATION":"53.0539","MEAN_ANOMALY":"299.2275","PERIAPSIS":"546.561","SITE":"AFETR","REF_FRAME":"TEME","EPOCH":"2021-08-20T16:20:23.303328","MEAN_MOTION_DDOT":"0.0000000000000","TLE_LINE2":"2 46132  53.0539 217.6716 0000947  60.8809 299.2275 15.06398784 56822","EPHEMERIS_TYPE":"0","MEAN_MOTION_DOT":"0.00000458","PERIOD":"95.592","ELEMENT_SET_NO":"999","OBJECT_NAME":"STARLINK-1630","MEAN_MOTION":"15.06398784","RA_OF_ASC_NODE":"217.6716","CENTER_NAME":"EARTH","CLASSIFICATION_TYPE":"U","ECCENTRICITY":"0.00009470","OBJECT_TYPE":"PAYLOAD","TLE_LINE1":"1 46132U 20057R   21232.68082527  .00000458  00000-0  49661-4 0  9995","TIME_SYSTEM":"UTC","BSTAR":"0.00004966100000","SEMIMAJOR_AXIS":"6925.352","APOAPSIS":"547.873","ARG_OF_PERICENTER":"60.8809","DECAY_DATE":null,"OBJECT_ID":"2020-057R","FILE":"3100512","GP_ID":"183155409"},{"SITE":"AFETR","REF_FRAME":"TEME","PERIAPSIS":"546.150","INCLINATION":"53.0552","MEAN_ANOMALY":"296.5132","NORAD_CAT_ID":"46133","RCS_SIZE":"LARGE","COUNTRY_CODE":"US","LAUNCH_DATE":"2020-08-18","REV_AT_EPOCH":"5685","MEAN_ELEMENT_THEORY":"SGP4","OBJECT_NAME":"STARLINK-1637","MEAN_MOTION":"15.06393883","PERIOD":"95.593","ELEMENT_SET_NO":"999","MEAN_MOTION_DOT":"-0.00000766","MEAN_MOTION_DDOT":"0.0000000000000","EPHEMERIS_TYPE":"0","TLE_LINE2":"2 46133  53.0552 175.5899 0001563  63.6017 296.5132 15.06393883 56859","EPOCH":"2021-08-21T03:29:10.413888","SEMIMAJOR_AXIS":"6925.367","BSTAR":"-0.00003255500000","TIME_SYSTEM":"UTC","TLE_LINE1":"1 46133U 20057S   21233.14525942 -.00000766  00000-0 -32555-4 0  9999","OBJECT_TYPE":"PAYLOAD","ECCENTRICITY":"0.00015630","CLASSIFICATION_TYPE":"U","RA_OF_ASC_NODE":"175.5899","CENTER_NAME":"EARTH","GP_ID":"183158195","FILE":"3100541","DECAY_DATE":null,"OBJECT_ID":"2020-057S","ARG_OF_PERICENTER":"63.6017","APOAPSIS":"548.315"},{"OBJECT_TYPE":"PAYLOAD","ECCENTRICITY":"0.00013360","CLASSIFICATION_TYPE":"U","CENTER_NAME":"EARTH","RA_OF_ASC_NODE":"177.0672","SEMIMAJOR_AXIS":"6925.356","BSTAR":"0.00007607500000","TLE_LINE1":"1 46134U 20057T   21232.81720539  .00000852  00000-0  76075-4 0  9991","TIME_SYSTEM":"UTC","ARG_OF_PERICENTER":"57.8087","APOAPSIS":"548.146","GP_ID":"183156411","FILE":"3100512","OBJECT_ID":"2020-057T","DECAY_DATE":null,"NORAD_CAT_ID":"46134","MEAN_ELEMENT_THEORY":"SGP4","LAUNCH_DATE":"2020-08-18","REV_AT_EPOCH":"5614","RCS_SIZE":"LARGE","COUNTRY_CODE":"US","SITE":"AFETR","REF_FRAME":"TEME","PERIAPSIS":"546.296","MEAN_ANOMALY":"302.3032","INCLINATION":"53.0551","EPHEMERIS_TYPE":"0","TLE_LINE2":"2 46134  53.0551 177.0672 0001336  57.8087 302.3032 15.06397598 56149","MEAN_MOTION_DDOT":"0.0000000000000","EPOCH":"2021-08-20T19:36:46.545696","MEAN_MOTION":"15.06397598","OBJECT_NAME":"STARLINK-1638","ELEMENT_SET_NO":"999","PERIOD":"95.592","MEAN_MOTION_DOT":"0.00000852"},{"INCLINATION":"53.0540","MEAN_ANOMALY":"300.6251","SITE":"AFETR","REF_FRAME":"TEME","PERIAPSIS":"546.167","COUNTRY_CODE":"US","RCS_SIZE":"LARGE","LAUNCH_DATE":"2020-08-18","MEAN_ELEMENT_THEORY":"SGP4","REV_AT_EPOCH":"5610","NORAD_CAT_ID":"46135","MEAN_MOTION_DOT":"0.00000868","OBJECT_NAME":"STARLINK-1639","MEAN_MOTION":"15.06399208","PERIOD":"95.592","ELEMENT_SET_NO":"999","EPOCH":"2021-08-20T13:35:50.765856","MEAN_MOTION_DDOT":"0.0000000000000","EPHEMERIS_TYPE":"0","TLE_LINE2":"2 46135  53.0540 178.1832 0001514  59.4888 300.6251 15.06399208 56103","BSTAR":"0.00007718600000","TIME_SYSTEM":"UTC","TLE_LINE1":"1 46135U 20057U   21232.56655979  .00000868  00000-0  77186-4 0  9990","SEMIMAJOR_AXIS":"6925.351","CLASSIFICATION_TYPE":"U","RA_OF_ASC_NODE":"178.1832","CENTER_NAME":"EARTH","OBJECT_TYPE":"PAYLOAD","ECCENTRICITY":"0.00015140","FILE":"3100512","DECAY_DATE":null,"OBJECT_ID":"2020-057U","GP_ID":"183154659","ARG_OF_PERICENTER":"59.4888","APOAPSIS":"548.264"},{"OBJECT_ID":"2020-057V","DECAY_DATE":null,"FILE":"3100541","GP_ID":"183157827","APOAPSIS":"548.084","ARG_OF_PERICENTER":"59.4841","TIME_SYSTEM":"UTC","TLE_LINE1":"1 46136U 20057V   21233.07982833  .00000607  00000-0  59630-4 0  9995","BSTAR":"0.00005963000000","SEMIMAJOR_AXIS":"6925.347","CENTER_NAME":"EARTH","RA_OF_ASC_NODE":"205.8851","CLASSIFICATION_TYPE":"U","ECCENTRICITY":"0.00012580","OBJECT_TYPE":"PAYLOAD","MEAN_MOTION_DOT":"0.00000607","ELEMENT_SET_NO":"999","PERIOD":"95.592","OBJECT_NAME":"STARLINK-1643","MEAN_MOTION":"15.06400348","EPOCH":"2021-08-21T01:54:57.167712","TLE_LINE2":"2 46136  53.0552 205.8851 0001258  59.4841 300.6272 15.06400348 56426","EPHEMERIS_TYPE":"0","MEAN_MOTION_DDOT":"0.0000000000000","MEAN_ANOMALY":"300.6272","INCLINATION":"53.0552","PERIAPSIS":"546.341","SITE":"AFETR","REF_FRAME":"TEME","LAUNCH_DATE":"2020-08-18","MEAN_ELEMENT_THEORY":"SGP4","REV_AT_EPOCH":"5642","RCS_SIZE":"LARGE","COUNTRY_CODE":"US","NORAD_CAT_ID":"46136"},{"COUNTRY_CODE":"US","RCS_SIZE":"LARGE","LAUNCH_DATE":"2020-08-18","MEAN_ELEMENT_THEORY":"SGP4","REV_AT_EPOCH":"5583","NORAD_CAT_ID":"46137","INCLINATION":"53.0533","MEAN_ANOMALY":"312.6484","PERIAPSIS":"546.312","SITE":"AFETR","REF_FRAME":"TEME","EPOCH":"2021-08-20T15:14:04.064928","MEAN_MOTION_DDOT":"0.0000000000000","EPHEMERIS_TYPE":"0","TLE_LINE2":"2 46137  53.0533 197.8798 0001338  47.4618 312.6484 15.06391675 55838","MEAN_MOTION_DOT":"0.00000427","PERIOD":"95.593","ELEMENT_SET_NO":"999","MEAN_MOTION":"15.06391675","OBJECT_NAME":"STARLINK-1586","RA_OF_ASC_NODE":"197.8798","CENTER_NAME":"EARTH","CLASSIFICATION_TYPE":"U","ECCENTRICITY":"0.00013380","OBJECT_TYPE":"PAYLOAD","TLE_LINE1":"1 46137U 20057W   21232.63476927  .00000427  00000-0  47585-4 0  9995","TIME_SYSTEM":"UTC","BSTAR":"0.00004758500000","SEMIMAJOR_AXIS":"6925.374","APOAPSIS":"548.166","ARG_OF_PERICENTER":"47.4618","DECAY_DATE":null,"OBJECT_ID":"2020-057W","FILE":"3100512","GP_ID":"183156161"}];
